[{"OBJECT_NAME":"STARLINK-2541","OBJECT_ID":"2021-036AP","EPOCH":"2023-10-22T12:54:35.127648","MEAN_MOTION":15.06403565,"ECCENTRICITY":0.0001354,"INCLINATION":53.0542,"RA_OF_ASC_NODE":33.3883,"ARG_OF_PERICENTER":104.316,"MEAN_ANOMALY":255.798,"EPHEMERIS_TYPE":0,"CLASSIFICATION_TYPE":"U","NORAD_CAT_ID":48313,"ELEMENT_SET_NO":999,"REV_AT_EPOCH":13781,"BSTAR":0.00038968,"MEAN_MOTION_DOT":5.528e-5,"MEAN_MOTION_DDOT":0},{"OBJECT_NAME":"STARLINK-2549","OBJECT_ID":"2021-036AQ","EPOCH":"2023-10-22T14:24:49.298976","MEAN_MOTION":15.06358976,"ECCENTRICITY":0.0001481,"INCLINATION":53.0543,"RA_OF_ASC_NODE":33.1154,"ARG_OF_PERICENTER":111.216,"MEAN_ANOMALY":248.8987,"EPHEMERIS_TYPE":0,"CLASSIFICATION_TYPE":"U","NORAD_CAT_ID":48314,"ELEMENT_SET_NO":999,"REV_AT_EPOCH":13717,"BSTAR":0.0011874,"MEAN_MOTION_DOT":0.00017429,"MEAN_MOTION_DDOT":0},{"OBJECT_NAME":"STARLINK-2506","OBJECT_ID":"2021-036AR","EPOCH":"2023-10-22T14:19:30.141696","MEAN_MOTION":15.06154946,"ECCENTRICITY":0.0001279,"INCLINATION":53.0564,"RA_OF_ASC_NODE":33.1294,"ARG_OF_PERICENTER":96.8855,"MEAN_ANOMALY":263.2279,"EPHEMERIS_TYPE":0,"CLASSIFICATION_TYPE":"U","NORAD_CAT_ID":48315,"ELEMENT_SET_NO":999,"REV_AT_EPOCH":13717,"BSTAR":0.0093889,"MEAN_MOTION_DOT":0.0014146,"MEAN_MOTION_DDOT":0},{"OBJECT_NAME":"STARLINK-2507","OBJECT_ID":"2021-036AS","EPOCH":"2023-10-22T14:14:12.312384","MEAN_MOTION":15.06361111,"ECCENTRICITY":0.0001403,"INCLINATION":53.055,"RA_OF_ASC_NODE":33.1464,"ARG_OF_PERICENTER":109.4735,"MEAN_ANOMALY":250.6406,"EPHEMERIS_TYPE":0,"CLASSIFICATION_TYPE":"U","NORAD_CAT_ID":48316,"ELEMENT_SET_NO":999,"REV_AT_EPOCH":13717,"BSTAR":0.00093464,"MEAN_MOTION_DOT":0.00013653,"MEAN_MOTION_DDOT":0},{"OBJECT_NAME":"STARLINK-2513","OBJECT_ID":"2021-036AT","EPOCH":"2023-10-22T14:08:54.249792","MEAN_MOTION":15.06364669,"ECCENTRICITY":0.0001324,"INCLINATION":53.055,"RA_OF_ASC_NODE":33.1629,"ARG_OF_PERICENTER":104.7355,"MEAN_ANOMALY":255.3781,"EPHEMERIS_TYPE":0,"CLASSIFICATION_TYPE":"U","NORAD_CAT_ID":48317,"ELEMENT_SET_NO":999,"REV_AT_EPOCH":13717,"BSTAR":0.0009949,"MEAN_MOTION_DOT":0.00014554,"MEAN_MOTION_DDOT":0},{"OBJECT_NAME":"STARLINK-2509","OBJECT_ID":"2021-036AU","EPOCH":"2023-10-22T13:56:57.232608","MEAN_MOTION":15.06355132,"ECCENTRICITY":0.000142,"INCLINATION":53.0547,"RA_OF_ASC_NODE":43.2,"ARG_OF_PERICENTER":102.2643,"MEAN_ANOMALY":257.8505,"EPHEMERIS_TYPE":0,"CLASSIFICATION_TYPE":"U","NORAD_CAT_ID":48318,"ELEMENT_SET_NO":999,"REV_AT_EPOCH":13703,"BSTAR":0.0013278,"MEAN_MOTION_DOT":0.00019527,"MEAN_MOTION_DDOT":0},{"OBJECT_NAME":"STARLINK-2512","OBJECT_ID":"2021-036AV","EPOCH":"2023-10-22T13:50:17.458080","MEAN_MOTION":15.06361065,"ECCENTRICITY":0.0001495,"INCLINATION":53.0548,"RA_OF_ASC_NODE":43.212,"ARG_OF_PERICENTER":90.8645,"MEAN_ANOMALY":269.2515,"EPHEMERIS_TYPE":0,"CLASSIFICATION_TYPE":"U","NORAD_CAT_ID":48319,"ELEMENT_SET_NO":999,"REV_AT_EPOCH":13703,"BSTAR":0.00055237,"MEAN_MOTION_DOT":7.947e-5,"MEAN_MOTION_DDOT":0},{"OBJECT_NAME":"STARLINK-2029","OBJECT_ID":"2021-036AW","EPOCH":"2023-10-22T13:46:20.549280","MEAN_MOTION":15.06360269,"ECCENTRICITY":0.0001529,"INCLINATION":53.0543,"RA_OF_ASC_NODE":43.235,"ARG_OF_PERICENTER":92.065,"MEAN_ANOMALY":268.0514,"EPHEMERIS_TYPE":0,"CLASSIFICATION_TYPE":"U","NORAD_CAT_ID":48320,"ELEMENT_SET_NO":999,"REV_AT_EPOCH":13703,"BSTAR":0.00057077,"MEAN_MOTION_DOT":8.221e-5,"MEAN_MOTION_DDOT":0},{"OBJECT_NAME":"STARLINK-2457","OBJECT_ID":"2021-036AX","EPOCH":"2023-10-22T13:41:00.401856","MEAN_MOTION":15.06390547,"ECCENTRICITY":0.0001643,"INCLINATION":53.0545,"RA_OF_ASC_NODE":43.2509,"ARG_OF_PERICENTER":101.3435,"MEAN_ANOMALY":258.7739,"EPHEMERIS_TYPE":0,"CLASSIFICATION_TYPE":"U","NORAD_CAT_ID":48321,"ELEMENT_SET_NO":999,"REV_AT_EPOCH":13703,"BSTAR":-1.4241e-5,"MEAN_MOTION_DOT":-4.94e-6,"MEAN_MOTION_DDOT":0},{"OBJECT_NAME":"STARLINK-2477","OBJECT_ID":"2021-036AY","EPOCH":"2023-10-22T13:35:43.251648","MEAN_MOTION":15.06380145,"ECCENTRICITY":0.00013,"INCLINATION":53.0561,"RA_OF_ASC_NODE":43.2663,"ARG_OF_PERICENTER":98.906,"MEAN_ANOMALY":261.2076,"EPHEMERIS_TYPE":0,"CLASSIFICATION_TYPE":"U","NORAD_CAT_ID":48322,"ELEMENT_SET_NO":999,"REV_AT_EPOCH":13703,"BSTAR":4.6952e-5,"MEAN_MOTION_DOT":4.18e-6,"MEAN_MOTION_DDOT":0},{"OBJECT_NAME":"STARLINK-2515","OBJECT_ID":"2021-036AZ","EPOCH":"2023-10-22T13:30:25.465536","MEAN_MOTION":15.06353653,"ECCENTRICITY":0.0001361,"INCLINATION":53.0552,"RA_OF_ASC_NODE":43.2822,"ARG_OF_PERICENTER":105.9653,"MEAN_ANOMALY":254.1486,"EPHEMERIS_TYPE":0,"CLASSIFICATION_TYPE":"U","NORAD_CAT_ID":48323,"ELEMENT_SET_NO":999,"REV_AT_EPOCH":13703,"BSTAR":-7.7078e-5,"MEAN_MOTION_DOT":-1.428e-5,"MEAN_MOTION_DDOT":0},{"OBJECT_NAME":"STARLINK-2527","OBJECT_ID":"2021-036BA","EPOCH":"2023-10-22T13:23:44.916000","MEAN_MOTION":15.06373494,"ECCENTRICITY":0.0001675,"INCLINATION":53.0562,"RA_OF_ASC_NODE":43.2877,"ARG_OF_PERICENTER":97.1788,"MEAN_ANOMALY":262.9392,"EPHEMERIS_TYPE":0,"CLASSIFICATION_TYPE":"U","NORAD_CAT_ID":48324,"ELEMENT_SET_NO":999,"REV_AT_EPOCH":13702,"BSTAR":6.4731e-6,"MEAN_MOTION_DOT":-1.85e-6,"MEAN_MOTION_DDOT":0},{"OBJECT_NAME":"STARLINK-2495","OBJECT_ID":"2021-036BB","EPOCH":"2023-10-22T13:19:48.144576","MEAN_MOTION":15.06375457,"ECCENTRICITY":0.0001506,"INCLINATION":53.056,"RA_OF_ASC_NODE":43.3099,"ARG_OF_PERICENTER":111.3941,"MEAN_ANOMALY":248.7209,"EPHEMERIS_TYPE":0,"CLASSIFICATION_TYPE":"U","NORAD_CAT_ID":48325,"ELEMENT_SET_NO":999,"REV_AT_EPOCH":13703,"BSTAR":-1.2107e-5,"MEAN_MOTION_DOT":-4.62e-6,"MEAN_MOTION_DDOT":0},{"OBJECT_NAME":"STARLINK-2498","OBJECT_ID":"2021-036BC","EPOCH":"2023-10-22T14:50:02.672736","MEAN_MOTION":15.06365655,"ECCENTRICITY":0.000145,"INCLINATION":53.0572,"RA_OF_ASC_NODE":43.0314,"ARG_OF_PERICENTER":101.4749,"MEAN_ANOMALY":258.6402,"EPHEMERIS_TYPE":0,"CLASSIFICATION_TYPE":"U","NORAD_CAT_ID":48326,"ELEMENT_SET_NO":999,"REV_AT_EPOCH":13704,"BSTAR":-8.1921e-5,"MEAN_MOTION_DOT":-1.5e-5,"MEAN_MOTION_DDOT":0},{"OBJECT_NAME":"STARLINK-2502","OBJECT_ID":"2021-036BD","EPOCH":"2023-10-22T14:44:44.281824","MEAN_MOTION":15.06365151,"ECCENTRICITY":0.0001319,"INCLINATION":53.0561,"RA_OF_ASC_NODE":43.0527,"ARG_OF_PERICENTER":104.684,"MEAN_ANOMALY":255.4295,"EPHEMERIS_TYPE":0,"CLASSIFICATION_TYPE":"U","NORAD_CAT_ID":48327,"ELEMENT_SET_NO":999,"REV_AT_EPOCH":13704,"BSTAR":0.0012598,"MEAN_MOTION_DOT":0.00018515,"MEAN_MOTION_DDOT":0},{"OBJECT_NAME":"STARLINK-2504","OBJECT_ID":"2021-036BE","EPOCH":"2023-10-22T14:38:00.662496","MEAN_MOTION":15.06389541,"ECCENTRICITY":0.0001502,"INCLINATION":53.0562,"RA_OF_ASC_NODE":43.0634,"ARG_OF_PERICENTER":104.5474,"MEAN_ANOMALY":255.5681,"EPHEMERIS_TYPE":0,"CLASSIFICATION_TYPE":"U","NORAD_CAT_ID":48328,"ELEMENT_SET_NO":999,"REV_AT_EPOCH":13704,"BSTAR":-4.2695e-5,"MEAN_MOTION_DOT":-9.17e-6,"MEAN_MOTION_DDOT":0},{"OBJECT_NAME":"STARLINK-2510","OBJECT_ID":"2021-036BF","EPOCH":"2023-10-22T14:34:06.631680","MEAN_MOTION":15.06369678,"ECCENTRICITY":0.0001678,"INCLINATION":53.056,"RA_OF_ASC_NODE":43.0819,"ARG_OF_PERICENTER":88.2057,"MEAN_ANOMALY":271.9124,"EPHEMERIS_TYPE":0,"CLASSIFICATION_TYPE":"U","NORAD_CAT_ID":48329,"ELEMENT_SET_NO":999,"REV_AT_EPOCH":13704,"BSTAR":0.001258,"MEAN_MOTION_DOT":0.00018491,"MEAN_MOTION_DDOT":0}]
