STARLINK-2541           
1 48313U 21036AP  23295.53790657  .00005528  00000+0  38968-3 0  9990
2 48313  53.0542  33.3883 0001354 104.3160 255.7980 15.06403565137817
STARLINK-2549           
1 48314U 21036AQ  23295.60057059  .00017429  00000+0  11874-2 0  9990
2 48314  53.0543  33.1154 0001481 111.2160 248.8987 15.06358976137170
STARLINK-2506           
1 48315U 21036AR  23295.59687664  .00141460  00000+0  93889-2 0  9999
2 48315  53.0564  33.1294 0001279  96.8855 263.2279 15.06154946137179
STARLINK-2507           
1 48316U 21036AS  23295.59319806  .00013653  00000+0  93464-3 0  9992
2 48316  53.0550  33.1464 0001403 109.4735 250.6406 15.06361111137177
STARLINK-2513           
1 48317U 21036AT  23295.58951678  .00014554  00000+0  99490-3 0  9997
2 48317  53.0550  33.1629 0001324 104.7355 255.3781 15.06364669137178
STARLINK-2509           
1 48318U 21036AU  23295.58121797  .00019527  00000+0  13278-2 0  9993
2 48318  53.0547  43.2000 0001420 102.2643 257.8505 15.06355132137031
STARLINK-2512           
1 48319U 21036AV  23295.57659095  .00007947  00000+0  55237-3 0  9995
2 48319  53.0548  43.2120 0001495  90.8645 269.2515 15.06361065137032
STARLINK-2029           
1 48320U 21036AW  23295.57384895  .00008221  00000+0  57077-3 0  9990
2 48320  53.0543  43.2350 0001529  92.0650 268.0514 15.06360269137033
STARLINK-2457           
1 48321U 21036AX  23295.57014354 -.00000494  00000+0 -14241-4 0  9994
2 48321  53.0545  43.2509 0001643 101.3435 258.7739 15.06390547137031
STARLINK-2477           
1 48322U 21036AY  23295.56647282  .00000418  00000+0  46952-4 0  9994
2 48322  53.0561  43.2663 0001300  98.9060 261.2076 15.06380145137032
STARLINK-2515           
1 48323U 21036AZ  23295.56279474 -.00001428  00000+0 -77078-4 0  9996
2 48323  53.0552  43.2822 0001361 105.9653 254.1486 15.06353653137034
STARLINK-2527           
1 48324U 21036BA  23295.55815875 -.00000185  00000+0  64731-5 0  9998
2 48324  53.0562  43.2877 0001675  97.1788 262.9392 15.06373494137022
STARLINK-2495           
1 48325U 21036BB  23295.55541834 -.00000462  00000+0 -12107-4 0  9998
2 48325  53.0560  43.3099 0001506 111.3941 248.7209 15.06375457137032
STARLINK-2498           
1 48326U 21036BC  23295.61808649 -.00001500  00000+0 -81921-4 0  9990
2 48326  53.0572  43.0314 0001450 101.4749 258.6402 15.06365655137042
STARLINK-2502           
1 48327U 21036BD  23295.61440141  .00018515  00000+0  12598-2 0  9994
2 48327  53.0561  43.0527 0001319 104.6840 255.4295 15.06365151137044
STARLINK-2504           
1 48328U 21036BE  23295.60972989 -.00000917  00000+0 -42695-4 0  9996
2 48328  53.0562  43.0634 0001502 104.5474 255.5681 15.06389541137040
STARLINK-2510           
1 48329U 21036BF  23295.60702120  .00018491  00000+0  12580-2 0  9997
2 48329  53.0560  43.0819 0001678  88.2057 271.9124 15.06369678137046
